<?xml version="1.0" encoding="UTF-8"?>
<ndm xmlns:xsi="http://www.w3.org/2001/XMLSchema-instance" xsi:noNamespaceSchemaLocation="https://sanaregistry.org/r/ndmxml_unqualified/ndmxml-2.0.0-master-2.0.xsd">
<omm id="CCSDS_OMM_VERS" version="2.0">
<header><CREATION_DATE/><ORIGINATOR/></header><body><segment><metadata><OBJECT_NAME>KUIPER-00079</OBJECT_NAME><OBJECT_ID>2025-151L</OBJECT_ID><CENTER_NAME>EARTH</CENTER_NAME><REF_FRAME>TEME</REF_FRAME><TIME_SYSTEM>UTC</TIME_SYSTEM><MEAN_ELEMENT_THEORY>SGP4</MEAN_ELEMENT_THEORY></metadata><data><meanElements><EPOCH>2025-11-08T20:00:01.999008</EPOCH><MEAN_MOTION>14.78018661</MEAN_MOTION><ECCENTRICITY>.0011787</ECCENTRICITY><INCLINATION>51.8986</INCLINATION><RA_OF_ASC_NODE>114.7487</RA_OF_ASC_NODE><ARG_OF_PERICENTER>193.4840</ARG_OF_PERICENTER><MEAN_ANOMALY>38.6006</MEAN_ANOMALY></meanElements><tleParameters><EPHEMERIS_TYPE>0</EPHEMERIS_TYPE><CLASSIFICATION_TYPE>U</CLASSIFICATION_TYPE><NORAD_CAT_ID>64826</NORAD_CAT_ID><ELEMENT_SET_NO>999</ELEMENT_SET_NO><REV_AT_EPOCH>130</REV_AT_EPOCH><BSTAR>.41468E-2</BSTAR><MEAN_MOTION_DOT>.30159E-3</MEAN_MOTION_DOT><MEAN_MOTION_DDOT>0</MEAN_MOTION_DDOT></tleParameters></data></segment></body></omm>
<omm id="CCSDS_OMM_VERS" version="2.0">
<header><CREATION_DATE/><ORIGINATOR/></header><body><segment><metadata><OBJECT_NAME>KUIPER-00080</OBJECT_NAME><OBJECT_ID>2025-151M</OBJECT_ID><CENTER_NAME>EARTH</CENTER_NAME><REF_FRAME>TEME</REF_FRAME><TIME_SYSTEM>UTC</TIME_SYSTEM><MEAN_ELEMENT_THEORY>SGP4</MEAN_ELEMENT_THEORY></metadata><data><meanElements><EPOCH>2025-11-08T12:14:41.851968</EPOCH><MEAN_MOTION>14.79957561</MEAN_MOTION><ECCENTRICITY>.000531</ECCENTRICITY><INCLINATION>51.8987</INCLINATION><RA_OF_ASC_NODE>116.4270</RA_OF_ASC_NODE><ARG_OF_PERICENTER>212.2393</ARG_OF_PERICENTER><MEAN_ANOMALY>147.8245</MEAN_ANOMALY></meanElements><tleParameters><EPHEMERIS_TYPE>0</EPHEMERIS_TYPE><CLASSIFICATION_TYPE>U</CLASSIFICATION_TYPE><NORAD_CAT_ID>64827</NORAD_CAT_ID><ELEMENT_SET_NO>999</ELEMENT_SET_NO><REV_AT_EPOCH>1736</REV_AT_EPOCH><BSTAR>.16069E-2</BSTAR><MEAN_MOTION_DOT>.1206E-3</MEAN_MOTION_DOT><MEAN_MOTION_DDOT>0</MEAN_MOTION_DDOT></tleParameters></data></segment></body></omm>
<omm id="CCSDS_OMM_VERS" version="2.0">
<header><CREATION_DATE/><ORIGINATOR/></header><body><segment><metadata><OBJECT_NAME>KUIPER-00082</OBJECT_NAME><OBJECT_ID>2025-151N</OBJECT_ID><CENTER_NAME>EARTH</CENTER_NAME><REF_FRAME>TEME</REF_FRAME><TIME_SYSTEM>UTC</TIME_SYSTEM><MEAN_ELEMENT_THEORY>SGP4</MEAN_ELEMENT_THEORY></metadata><data><meanElements><EPOCH>2025-11-08T16:37:18.053184</EPOCH><MEAN_MOTION>14.80011147</MEAN_MOTION><ECCENTRICITY>.000485</ECCENTRICITY><INCLINATION>51.8974</INCLINATION><RA_OF_ASC_NODE>103.1292</RA_OF_ASC_NODE><ARG_OF_PERICENTER>227.3153</ARG_OF_PERICENTER><MEAN_ANOMALY>132.7401</MEAN_ANOMALY></meanElements><tleParameters><EPHEMERIS_TYPE>0</EPHEMERIS_TYPE><CLASSIFICATION_TYPE>U</CLASSIFICATION_TYPE><NORAD_CAT_ID>64828</NORAD_CAT_ID><ELEMENT_SET_NO>999</ELEMENT_SET_NO><REV_AT_EPOCH>1756</REV_AT_EPOCH><BSTAR>.24312E-2</BSTAR><MEAN_MOTION_DOT>.184E-3</MEAN_MOTION_DOT><MEAN_MOTION_DDOT>0</MEAN_MOTION_DDOT></tleParameters></data></segment></body></omm>
<omm id="CCSDS_OMM_VERS" version="2.0">
<header><CREATION_DATE/><ORIGINATOR/></header><body><segment><metadata><OBJECT_NAME>KUIPER-00083</OBJECT_NAME><OBJECT_ID>2025-151P</OBJECT_ID><CENTER_NAME>EARTH</CENTER_NAME><REF_FRAME>TEME</REF_FRAME><TIME_SYSTEM>UTC</TIME_SYSTEM><MEAN_ELEMENT_THEORY>SGP4</MEAN_ELEMENT_THEORY></metadata><data><meanElements><EPOCH>2025-11-08T11:33:46.369152</EPOCH><MEAN_MOTION>14.79954547</MEAN_MOTION><ECCENTRICITY>.001045</ECCENTRICITY><INCLINATION>51.8993</INCLINATION><RA_OF_ASC_NODE>111.5603</RA_OF_ASC_NODE><ARG_OF_PERICENTER>199.1264</ARG_OF_PERICENTER><MEAN_ANOMALY>160.9307</MEAN_ANOMALY></meanElements><tleParameters><EPHEMERIS_TYPE>0</EPHEMERIS_TYPE><CLASSIFICATION_TYPE>U</CLASSIFICATION_TYPE><NORAD_CAT_ID>64829</NORAD_CAT_ID><ELEMENT_SET_NO>999</ELEMENT_SET_NO><REV_AT_EPOCH>1861</REV_AT_EPOCH><BSTAR>.62662E-3</BSTAR><MEAN_MOTION_DOT>.4563E-4</MEAN_MOTION_DOT><MEAN_MOTION_DDOT>0</MEAN_MOTION_DDOT></tleParameters></data></segment></body></omm>
<omm id="CCSDS_OMM_VERS" version="2.0">
<header><CREATION_DATE/><ORIGINATOR/></header><body><segment><metadata><OBJECT_NAME>KUIPER-00084</OBJECT_NAME><OBJECT_ID>2025-151Q</OBJECT_ID><CENTER_NAME>EARTH</CENTER_NAME><REF_FRAME>TEME</REF_FRAME><TIME_SYSTEM>UTC</TIME_SYSTEM><MEAN_ELEMENT_THEORY>SGP4</MEAN_ELEMENT_THEORY></metadata><data><meanElements><EPOCH>2025-11-08T17:47:17.278944</EPOCH><MEAN_MOTION>14.79950048</MEAN_MOTION><ECCENTRICITY>.0011966</ECCENTRICITY><INCLINATION>51.8985</INCLINATION><RA_OF_ASC_NODE>120.4002</RA_OF_ASC_NODE><ARG_OF_PERICENTER>170.7925</ARG_OF_PERICENTER><MEAN_ANOMALY>189.3259</MEAN_ANOMALY></meanElements><tleParameters><EPHEMERIS_TYPE>0</EPHEMERIS_TYPE><CLASSIFICATION_TYPE>U</CLASSIFICATION_TYPE><NORAD_CAT_ID>64830</NORAD_CAT_ID><ELEMENT_SET_NO>999</ELEMENT_SET_NO><REV_AT_EPOCH>1732</REV_AT_EPOCH><BSTAR>.66565E-3</BSTAR><MEAN_MOTION_DOT>.4862E-4</MEAN_MOTION_DOT><MEAN_MOTION_DDOT>0</MEAN_MOTION_DDOT></tleParameters></data></segment></body></omm>
<omm id="CCSDS_OMM_VERS" version="2.0">
<header><CREATION_DATE/><ORIGINATOR/></header><body><segment><metadata><OBJECT_NAME>KUIPER-00085</OBJECT_NAME><OBJECT_ID>2025-151R</OBJECT_ID><CENTER_NAME>EARTH</CENTER_NAME><REF_FRAME>TEME</REF_FRAME><TIME_SYSTEM>UTC</TIME_SYSTEM><MEAN_ELEMENT_THEORY>SGP4</MEAN_ELEMENT_THEORY></metadata><data><meanElements><EPOCH>2025-11-08T19:03:04.721760</EPOCH><MEAN_MOTION>14.79932645</MEAN_MOTION><ECCENTRICITY>.0007531</ECCENTRICITY><INCLINATION>51.9017</INCLINATION><RA_OF_ASC_NODE>102.6922</RA_OF_ASC_NODE><ARG_OF_PERICENTER>205.1962</ARG_OF_PERICENTER><MEAN_ANOMALY>154.8634</MEAN_ANOMALY></meanElements><tleParameters><EPHEMERIS_TYPE>0</EPHEMERIS_TYPE><CLASSIFICATION_TYPE>U</CLASSIFICATION_TYPE><NORAD_CAT_ID>64831</NORAD_CAT_ID><ELEMENT_SET_NO>999</ELEMENT_SET_NO><REV_AT_EPOCH>1757</REV_AT_EPOCH><BSTAR>.74578E-3</BSTAR><MEAN_MOTION_DOT>.547E-4</MEAN_MOTION_DOT><MEAN_MOTION_DDOT>0</MEAN_MOTION_DDOT></tleParameters></data></segment></body></omm>
<omm id="CCSDS_OMM_VERS" version="2.0">
<header><CREATION_DATE/><ORIGINATOR/></header><body><segment><metadata><OBJECT_NAME>KUIPER-00086</OBJECT_NAME><OBJECT_ID>2025-151S</OBJECT_ID><CENTER_NAME>EARTH</CENTER_NAME><REF_FRAME>TEME</REF_FRAME><TIME_SYSTEM>UTC</TIME_SYSTEM><MEAN_ELEMENT_THEORY>SGP4</MEAN_ELEMENT_THEORY></metadata><data><meanElements><EPOCH>2025-11-08T17:10:13.909728</EPOCH><MEAN_MOTION>14.79972746</MEAN_MOTION><ECCENTRICITY>.0011279</ECCENTRICITY><INCLINATION>51.9006</INCLINATION><RA_OF_ASC_NODE>113.0282</RA_OF_ASC_NODE><ARG_OF_PERICENTER>193.5769</ARG_OF_PERICENTER><MEAN_ANOMALY>166.4891</MEAN_ANOMALY></meanElements><tleParameters><EPHEMERIS_TYPE>0</EPHEMERIS_TYPE><CLASSIFICATION_TYPE>U</CLASSIFICATION_TYPE><NORAD_CAT_ID>64832</NORAD_CAT_ID><ELEMENT_SET_NO>999</ELEMENT_SET_NO><REV_AT_EPOCH>1742</REV_AT_EPOCH><BSTAR>.89261E-3</BSTAR><MEAN_MOTION_DOT>.6601E-4</MEAN_MOTION_DOT><MEAN_MOTION_DDOT>0</MEAN_MOTION_DDOT></tleParameters></data></segment></body></omm>
<omm id="CCSDS_OMM_VERS" version="2.0">
<header><CREATION_DATE/><ORIGINATOR/></header><body><segment><metadata><OBJECT_NAME>KUIPER-00087</OBJECT_NAME><OBJECT_ID>2025-151T</OBJECT_ID><CENTER_NAME>EARTH</CENTER_NAME><REF_FRAME>TEME</REF_FRAME><TIME_SYSTEM>UTC</TIME_SYSTEM><MEAN_ELEMENT_THEORY>SGP4</MEAN_ELEMENT_THEORY></metadata><data><meanElements><EPOCH>2025-11-08T20:00:01.999008</EPOCH><MEAN_MOTION>14.92740947</MEAN_MOTION><ECCENTRICITY>.0001768</ECCENTRICITY><INCLINATION>51.8949</INCLINATION><RA_OF_ASC_NODE>95.4354</RA_OF_ASC_NODE><ARG_OF_PERICENTER>231.9643</ARG_OF_PERICENTER><MEAN_ANOMALY>73.4626</MEAN_ANOMALY></meanElements><tleParameters><EPHEMERIS_TYPE>0</EPHEMERIS_TYPE><CLASSIFICATION_TYPE>U</CLASSIFICATION_TYPE><NORAD_CAT_ID>64833</NORAD_CAT_ID><ELEMENT_SET_NO>999</ELEMENT_SET_NO><REV_AT_EPOCH>460</REV_AT_EPOCH><BSTAR>-.10535E+0</BSTAR><MEAN_MOTION_DOT>-.1018769E-1</MEAN_MOTION_DOT><MEAN_MOTION_DDOT>0</MEAN_MOTION_DDOT></tleParameters></data></segment></body></omm>

</ndm>
