KUIPER-00079            
1 64826U 25151L   25312.83335647  .00030159  00000+0  41468-2 0  9994
2 64826  51.8986 114.7487 0011787 193.4840  38.6006 14.78018661  1309
KUIPER-00080            
1 64827U 25151M   25312.51020662  .00012060  00000+0  16069-2 0  9998
2 64827  51.8987 116.4270 0005310 212.2393 147.8245 14.79957561 17361
KUIPER-00082            
1 64828U 25151N   25312.69257006  .00018400  00000+0  24312-2 0  9996
2 64828  51.8974 103.1292 0004850 227.3153 132.7401 14.80011147 17566
KUIPER-00083            
1 64829U 25151P   25312.48178668  .00004563  00000+0  62662-3 0  9996
2 64829  51.8993 111.5603 0010450 199.1264 160.9307 14.79954547 18612
KUIPER-00084            
1 64830U 25151Q   25312.74117221  .00004862  00000+0  66565-3 0  9993
2 64830  51.8985 120.4002 0011966 170.7925 189.3259 14.79950048 17329
KUIPER-00085            
1 64831U 25151R   25312.79380465  .00005470  00000+0  74578-3 0  9990
2 64831  51.9017 102.6922 0007531 205.1962 154.8634 14.79932645 17571
KUIPER-00086            
1 64832U 25151S   25312.71543877  .00006601  00000+0  89261-3 0  9993
2 64832  51.9006 113.0282 0011279 193.5769 166.4891 14.79972746 17428
KUIPER-00087            
1 64833U 25151T   25312.83335647 -.01018769  00000+0 -10535+0 0  9996
2 64833  51.8949  95.4354 0001768 231.9643  73.4626 14.92740947  4607
